*******************************************************************************
Ephemeris / WWW_USER Mon Mar 24 06:58:41 2025 Pasadena, USA      / Horizons    
*******************************************************************************
Target body name: Pluto (999)                     {source: plu060_merged}
Center body name: Earth (399)                     {source: DE441}
Center-site name: Mauna Kea
*******************************************************************************
Start time      : A.D. 2018-Nov-30 03:51:00.0000 UT      
Stop  time      : A.D. 2018-Nov-30 16:29:00.0000 UT      
Step-size       : 1 minutes
*******************************************************************************
Target pole/equ : IAU_PLUTO                       {East-longitude positive}
Target radii    : 1188.3, 1188.3, 1188.3 km       {Equator_a, b, pole_c}       
Center geodetic : 204.5278, 19.8260847, 4.21024   {E-lon(deg),Lat(deg),Alt(km)}
Center cylindric: 204.5278, 6006.35451, 2151.0229 {E-lon(deg),Dxy(km),Dz(km)}
Center pole/equ : ITRF93                          {East-longitude positive}
Center radii    : 6378.137, 6378.137, 6356.752 km {Equator_a, b, pole_c}       
Target primary  : Sun
Vis. interferer : MOON (R_eq= 1737.400) km        {source: DE441}
Rel. light bend : Sun                             {source: plu060_merged}
Rel. lght bnd GM: 1.3271E+11 km^3/s^2                                          
Atmos refraction: NO (AIRLESS)
RA format       : HMS
Time format     : CAL 
Calendar mode   : Mixed Julian/Gregorian
RTS-only print  : NO       
EOP file        : eop.250321.p250617                                           
EOP coverage    : DATA-BASED 1962-JAN-20 TO 2025-MAR-21. PREDICTS-> 2025-JUN-16
Units conversion: 1 au= 149597870.700 km, c= 299792.458 km/s, 1 day= 86400.0 s 
Table cut-offs 1: Elevation (-90.0deg=NO ),Airmass (>38.000=NO), Daylight (YES)
Table cut-offs 2: Solar elongation (  0.0,180.0=NO ),Local Hour Angle( 0.0=NO )
Table cut-offs 3: RA/DEC angular rate (     0.0=NO )                           
*******************************************************************************
 Date__(UT)__HR:MN     R.A._________(ICRF)_________DEC
******************************************************
$$SOE
 2018-Nov-30 03:51 C   19 23 51.213804 -22 05 43.04552
 2018-Nov-30 03:52 C   19 23 51.218556 -22 05 43.03943
 2018-Nov-30 03:53 C   19 23 51.223307 -22 05 43.03334
 2018-Nov-30 03:54 C   19 23 51.228059 -22 05 43.02725
 2018-Nov-30 03:55 C   19 23 51.232811 -22 05 43.02115
 2018-Nov-30 03:56 C   19 23 51.237564 -22 05 43.01506
 2018-Nov-30 03:57 C   19 23 51.242316 -22 05 43.00896
 2018-Nov-30 03:58 C   19 23 51.247069 -22 05 43.00286
 2018-Nov-30 03:59 C   19 23 51.251822 -22 05 42.99676
 2018-Nov-30 04:00 C   19 23 51.256576 -22 05 42.99066
 2018-Nov-30 04:01 C   19 23 51.261330 -22 05 42.98456
 2018-Nov-30 04:02 C   19 23 51.266084 -22 05 42.97845
 2018-Nov-30 04:03 C   19 23 51.270838 -22 05 42.97235
 2018-Nov-30 04:04 C   19 23 51.275592 -22 05 42.96624
 2018-Nov-30 04:05 C   19 23 51.280347 -22 05 42.96013
 2018-Nov-30 04:06 N   19 23 51.285102 -22 05 42.95402
 2018-Nov-30 04:07 N   19 23 51.289857 -22 05 42.94791
 2018-Nov-30 04:08 N   19 23 51.294613 -22 05 42.94180
 2018-Nov-30 04:09 N   19 23 51.299369 -22 05 42.93568
 2018-Nov-30 04:10 N   19 23 51.304125 -22 05 42.92957
 2018-Nov-30 04:11 N   19 23 51.308881 -22 05 42.92345
 2018-Nov-30 04:12 N   19 23 51.313638 -22 05 42.91733
 2018-Nov-30 04:13 N   19 23 51.318395 -22 05 42.91121
 2018-Nov-30 04:14 N   19 23 51.323152 -22 05 42.90509
 2018-Nov-30 04:15 N   19 23 51.327910 -22 05 42.89897
 2018-Nov-30 04:16 N   19 23 51.332668 -22 05 42.89285
 2018-Nov-30 04:17 N   19 23 51.337426 -22 05 42.88672
 2018-Nov-30 04:18 N   19 23 51.342184 -22 05 42.88060
 2018-Nov-30 04:19 N   19 23 51.346943 -22 05 42.87447
 2018-Nov-30 04:20 N   19 23 51.351702 -22 05 42.86834
 2018-Nov-30 04:21 N   19 23 51.356461 -22 05 42.86221
 2018-Nov-30 04:22 N   19 23 51.361220 -22 05 42.85608
 2018-Nov-30 04:23 N   19 23 51.365980 -22 05 42.84995
 2018-Nov-30 04:24 N   19 23 51.370740 -22 05 42.84381
 2018-Nov-30 04:25 N   19 23 51.375500 -22 05 42.83768
 2018-Nov-30 04:26 N   19 23 51.380261 -22 05 42.83154
 2018-Nov-30 04:27 N   19 23 51.385022 -22 05 42.82540
 2018-Nov-30 04:28 N   19 23 51.389783 -22 05 42.81927
 2018-Nov-30 04:29 N   19 23 51.394545 -22 05 42.81313
 2018-Nov-30 04:30 N   19 23 51.399307 -22 05 42.80699
 2018-Nov-30 04:31 N   19 23 51.404069 -22 05 42.80084
 2018-Nov-30 04:32 N   19 23 51.408831 -22 05 42.79470
 2018-Nov-30 04:33 A   19 23 51.413594 -22 05 42.78855
 2018-Nov-30 04:34 A   19 23 51.418357 -22 05 42.78241
 2018-Nov-30 04:35 A   19 23 51.423120 -22 05 42.77626
 2018-Nov-30 04:36 A   19 23 51.427883 -22 05 42.77011
 2018-Nov-30 04:37 A   19 23 51.432647 -22 05 42.76396
 2018-Nov-30 04:38 A   19 23 51.437412 -22 05 42.75781
 2018-Nov-30 04:39 A   19 23 51.442176 -22 05 42.75166
 2018-Nov-30 04:40 A   19 23 51.446941 -22 05 42.74551
 2018-Nov-30 04:41 A   19 23 51.451706 -22 05 42.73935
 2018-Nov-30 04:42 A   19 23 51.456471 -22 05 42.73320
 2018-Nov-30 04:43 A   19 23 51.461237 -22 05 42.72704
 2018-Nov-30 04:44 A   19 23 51.466003 -22 05 42.72088
 2018-Nov-30 04:45 A   19 23 51.470769 -22 05 42.71472
 2018-Nov-30 04:46 A   19 23 51.475536 -22 05 42.70856
 2018-Nov-30 04:47 A   19 23 51.480303 -22 05 42.70240
 2018-Nov-30 04:48 A   19 23 51.485070 -22 05 42.69624
 2018-Nov-30 04:49 A   19 23 51.489837 -22 05 42.69008
 2018-Nov-30 04:50 A   19 23 51.494605 -22 05 42.68391
 2018-Nov-30 04:51 A   19 23 51.499373 -22 05 42.67774
 2018-Nov-30 04:52 A   19 23 51.504142 -22 05 42.67158
 2018-Nov-30 04:53 A   19 23 51.508911 -22 05 42.66541
 2018-Nov-30 04:54 A   19 23 51.513680 -22 05 42.65924
 2018-Nov-30 04:55 A   19 23 51.518449 -22 05 42.65307
 2018-Nov-30 04:56 A   19 23 51.523219 -22 05 42.64690
 2018-Nov-30 04:57 A   19 23 51.527989 -22 05 42.64073
 2018-Nov-30 04:58 A   19 23 51.532759 -22 05 42.63455
 2018-Nov-30 04:59     19 23 51.537530 -22 05 42.62838
 2018-Nov-30 05:00     19 23 51.542301 -22 05 42.62220
 2018-Nov-30 05:01     19 23 51.547072 -22 05 42.61603
 2018-Nov-30 05:02     19 23 51.551844 -22 05 42.60985
 2018-Nov-30 05:03     19 23 51.556616 -22 05 42.60367
 2018-Nov-30 05:04     19 23 51.561388 -22 05 42.59749
 2018-Nov-30 05:05     19 23 51.566161 -22 05 42.59131
 2018-Nov-30 05:06     19 23 51.570933 -22 05 42.58513
 2018-Nov-30 05:07     19 23 51.575707 -22 05 42.57895
 2018-Nov-30 05:08     19 23 51.580480 -22 05 42.57276
 2018-Nov-30 05:09     19 23 51.585254 -22 05 42.56658
 2018-Nov-30 05:10     19 23 51.590028 -22 05 42.56039
 2018-Nov-30 05:11     19 23 51.594803 -22 05 42.55421
 2018-Nov-30 05:12     19 23 51.599578 -22 05 42.54802
 2018-Nov-30 05:13     19 23 51.604353 -22 05 42.54183
 2018-Nov-30 05:14     19 23 51.609128 -22 05 42.53564
 2018-Nov-30 05:15     19 23 51.613904 -22 05 42.52945
 2018-Nov-30 05:16     19 23 51.618680 -22 05 42.52326
 2018-Nov-30 05:17     19 23 51.623457 -22 05 42.51707
 2018-Nov-30 05:18     19 23 51.628234 -22 05 42.51087
 2018-Nov-30 05:19     19 23 51.633011 -22 05 42.50468
 2018-Nov-30 05:20     19 23 51.637789 -22 05 42.49848
 2018-Nov-30 05:21     19 23 51.642566 -22 05 42.49229
 2018-Nov-30 05:22     19 23 51.647345 -22 05 42.48609
 2018-Nov-30 05:23     19 23 51.652123 -22 05 42.47989
 2018-Nov-30 05:24     19 23 51.656902 -22 05 42.47369
 2018-Nov-30 05:25     19 23 51.661681 -22 05 42.46749
 2018-Nov-30 05:26     19 23 51.666461 -22 05 42.46129
 2018-Nov-30 05:27     19 23 51.671240 -22 05 42.45509
 2018-Nov-30 05:28     19 23 51.676021 -22 05 42.44889
 2018-Nov-30 05:29     19 23 51.680801 -22 05 42.44268
 2018-Nov-30 05:30     19 23 51.685582 -22 05 42.43648
 2018-Nov-30 05:31     19 23 51.690363 -22 05 42.43028
 2018-Nov-30 05:32     19 23 51.695145 -22 05 42.42407
 2018-Nov-30 05:33     19 23 51.699927 -22 05 42.41786
 2018-Nov-30 05:34     19 23 51.704709 -22 05 42.41166
 2018-Nov-30 05:35     19 23 51.709492 -22 05 42.40545
 2018-Nov-30 05:36     19 23 51.714275 -22 05 42.39924
 2018-Nov-30 05:37     19 23 51.719058 -22 05 42.39303
 2018-Nov-30 05:38     19 23 51.723841 -22 05 42.38682
 2018-Nov-30 05:39     19 23 51.728625 -22 05 42.38061
 2018-Nov-30 05:40     19 23 51.733410 -22 05 42.37439
 2018-Nov-30 05:41     19 23 51.738194 -22 05 42.36818
 2018-Nov-30 05:42     19 23 51.742979 -22 05 42.36197
 2018-Nov-30 05:43     19 23 51.747765 -22 05 42.35575
 2018-Nov-30 05:44     19 23 51.752550 -22 05 42.34954
 2018-Nov-30 05:45     19 23 51.757336 -22 05 42.34332
 2018-Nov-30 05:46     19 23 51.762123 -22 05 42.33711
 2018-Nov-30 05:47     19 23 51.766910 -22 05 42.33089
 2018-Nov-30 05:48     19 23 51.771697 -22 05 42.32467
 2018-Nov-30 05:49     19 23 51.776484 -22 05 42.31845
 2018-Nov-30 05:50     19 23 51.781272 -22 05 42.31223
 2018-Nov-30 05:51     19 23 51.786060 -22 05 42.30601
 2018-Nov-30 05:52     19 23 51.790848 -22 05 42.29979
 2018-Nov-30 05:53     19 23 51.795637 -22 05 42.29357
 2018-Nov-30 05:54     19 23 51.800427 -22 05 42.28735
 2018-Nov-30 05:55     19 23 51.805216 -22 05 42.28112
 2018-Nov-30 05:56     19 23 51.810006 -22 05 42.27490
 2018-Nov-30 05:57     19 23 51.814796 -22 05 42.26867
 2018-Nov-30 05:58     19 23 51.819587 -22 05 42.26245
 2018-Nov-30 05:59     19 23 51.824378 -22 05 42.25622
 2018-Nov-30 06:00     19 23 51.829169 -22 05 42.25000
 2018-Nov-30 06:01     19 23 51.833961 -22 05 42.24377
 2018-Nov-30 06:02     19 23 51.838753 -22 05 42.23754
 2018-Nov-30 06:03     19 23 51.843545 -22 05 42.23131
 2018-Nov-30 06:04     19 23 51.848338 -22 05 42.22508
 2018-Nov-30 06:05     19 23 51.853131 -22 05 42.21885
 2018-Nov-30 06:06     19 23 51.857925 -22 05 42.21262
 2018-Nov-30 06:07     19 23 51.862718 -22 05 42.20639
 2018-Nov-30 06:08     19 23 51.867513 -22 05 42.20016
 2018-Nov-30 06:09     19 23 51.872307 -22 05 42.19393
 2018-Nov-30 06:10     19 23 51.877102 -22 05 42.18770
 2018-Nov-30 06:11     19 23 51.881897 -22 05 42.18147
